{"results":1,"data":[{"icao":"EHAM","barometer":{"hg":30.0,"hpa":1016.0,"kpa":101.59,"mb":1015.92},"ceiling":{"feet":3000,"meters":914},"clouds":[{"base_feet_agl":1000,"base_meters_agl":305,"code":"FEW","text":"Few","feet":1000,"meters":305},{"base_feet_agl":1600,"base_meters_agl":488,"code":"SCT","text":"Scattered","feet":1600,"meters":488},{"base_feet_agl":3000,"base_meters_agl":914,"code":"BKN","text":"Broken","feet":3000,"meters":914}],"conditions":[{"code":"RA","text":"Light Rain"},{"code":"DZ","text":"Light Drizzle"}],"dewpoint":{"celsius":5,"fahrenheit":41},"elevation":{"feet":-7.0,"meters":-2.0},"flight_category":"MVFR","humidity":{"percent":93},"observed":"2024-01-13T21:55:00","station":{"geometry":{"coordinates":[4.76389,52.308601],"type":"Point"},"location":"Schiphol, North Holland, Netherlands","name":"Amsterdam Airport Schiphol","type":"Airport"},"temperature":{"celsius":6,"fahrenheit":43},"raw_text":"EHAM 132155Z 28011KT 250V310 9999 -RADZ FEW010 SCT016 BKN030 06/05 Q1016 NOSIG","visibility":{"miles":"Greater than 6","miles_float":6.0,"meters":"9,700","meters_float":9700.0},"wind":{"degrees":280,"speed_kph":20,"speed_kts":11,"speed_mph":13,"speed_mps":6}}]}