{"results":1,"data":[{"icao":"EGLL","barometer":{"hg":30.12,"hpa":1020.0,"kpa":102.0,"mb":1019.98},"ceiling":{"feet":2400,"meters":732},"clouds":[{"base_feet_agl":2400,"base_meters_agl":732,"code":"OVC","text":"Overcast","feet":2400,"meters":732}],"dewpoint":{"celsius":1,"fahrenheit":34},"elevation":{"feet":85.0,"meters":26.0},"flight_category":"MVFR","humidity":{"percent":81},"observed":"2024-01-13T21:50:00","station":{"geometry":{"coordinates":[-0.461941,51.4706],"type":"Point"},"location":"London, England, United Kingdom","name":"London Heathrow Airport","type":"Airport"},"temperature":{"celsius":4,"fahrenheit":39},"raw_text":"EGLL 132150Z AUTO 23004KT 9999 OVC024 04/01 Q1020","visibility":{"miles":"Greater than 6","miles_float":6.0,"meters":"9,700","meters_float":9700.0},"wind":{"degrees":230,"speed_kph":7,"speed_kts":4,"speed_mph":5,"speed_mps":2}}]}