{"results":1,"data":[{"icao":"EGCC","raw_text":"METAR EGCC 221450Z VRB04KT 9999 FEW032 SCT046 23/13 Q1026","observed":"2026-07-22T14:50:00Z","report":{"type":"METAR","status":"Routine Report"},"clouds":[{"code":"FEW","feet":3200,"meters":975.0,"text":"Few"},{"code":"SCT","feet":4600,"meters":1402.0,"text":"Scattered"}],"dewpoint":{"celsius":13,"fahrenheit":55},"flight_category":"VFR","temperature":{"celsius":23,"fahrenheit":73},"humidity":53,"station":{"icao":"EGCC","iata":"MAN","name":"Manchester Airport","geometry":{"type":"Point","coordinates":[-2.27952,53.34938]},"location":"Manchester, Greater Manchester, United Kingdom"},"barometer":{"hg":30.3,"mb":1026.0,"hpa":1026.1,"kpa":102.6},"visibility":{"miles":10.0,"meters":9999.0,"text":"Greater than 10,000 meters","miles_text":"Greater than 10,000 meters","meters_text":"Greater than 10,000 meters"},"wind":{"direction":"VRB","speed_kts":4,"speed_mph":5,"speed_kph":7,"speed_mps":2}}]}